[
    {
        "Altitude(m)": 556178.5135041259,
        "Argument of Periapsis(deg)": 0.026491964442854003,
        "Eccentricity": 0.0,
        "Inclination(deg)": 53.0,
        "Latitude(deg)": 36.300175942448746,
        "Longitude(deg)": -64.78167178243535,
        "Mean Anomaly(deg)": 47.639171470310345,
        "RAAN(deg)": 4.960573474112068,
        "Satellite Name": "Starlink Shell 1 22",
        "Satellite Number": 22,
        "Semi-Major Axis(m)": 6931778.249405717,
        "Time(s)": 760
    },
    {
        "Altitude(m)": 556261.4967196893,
        "Argument of Periapsis(deg)": 0.02684054292236524,
        "Eccentricity": 0.0,
        "Inclination(deg)": 53.0,
        "Latitude(deg)": 36.71810614730875,
        "Longitude(deg)": -64.24125530701748,
        "Mean Anomaly(deg)": 48.266002673867064,
        "RAAN(deg)": 4.960054704034595,
        "Satellite Name": "Starlink Shell 1 22",
        "Satellite Number": 22,
        "Semi-Major Axis(m)": 6931778.249405717,
        "Time(s)": 770
    },
    {
        "Altitude(m)": 556344.692305197,
        "Argument of Periapsis(deg)": 0.027189121401876473,
        "Eccentricity": 0.0,
        "Inclination(deg)": 53.0,
        "Latitude(deg)": 37.13313343743235,
        "Longitude(deg)": -63.6945310402218,
        "Mean Anomaly(deg)": 48.89283387742377,
        "RAAN(deg)": 4.959535933957121,
        "Satellite Name": "Starlink Shell 1 22",
        "Satellite Number": 22,
        "Semi-Major Axis(m)": 6931778.249405717,
        "Time(s)": 780
    },
    {
        "Altitude(m)": 556428.0447649037,
        "Argument of Periapsis(deg)": 0.02753769988138771,
        "Eccentricity": 0.0,
        "Inclination(deg)": 53.0,
        "Latitude(deg)": 37.54518299429427,
        "Longitude(deg)": -63.14137846541103,
        "Mean Anomaly(deg)": 49.519665080980495,
        "RAAN(deg)": 4.959017163879649,
        "Satellite Name": "Starlink Shell 1 22",
        "Satellite Number": 22,
        "Semi-Major Axis(m)": 6931778.249405717,
        "Time(s)": 790
    },
    {
        "Altitude(m)": 556511.4987331305,
        "Argument of Periapsis(deg)": 0.02788627836089895,
        "Eccentricity": 0.0,
        "Inclination(deg)": 53.0,
        "Latitude(deg)": 37.95417831051771,
        "Longitude(deg)": -62.58167736473538,
        "Mean Anomaly(deg)": 50.14649628453721,
        "RAAN(deg)": 4.958498393802175,
        "Satellite Name": "Starlink Shell 1 22",
        "Satellite Number": 22,
        "Semi-Major Axis(m)": 6931778.249405717,
        "Time(s)": 800
    },
    {
        "Altitude(m)": 556594.9990026453,
        "Argument of Periapsis(deg)": 0.02823485684041019,
        "Eccentricity": 0.0,
        "Inclination(deg)": 53.0,
        "Latitude(deg)": 38.36004116317313,
        "Longitude(deg)": -62.015307460229025,
        "Mean Anomaly(deg)": 50.773327488093926,
        "RAAN(deg)": 4.957979623724704,
        "Satellite Name": "Starlink Shell 1 22",
        "Satellite Number": 22,
        "Semi-Major Axis(m)": 6931778.249405717,
        "Time(s)": 810
    },
    {
        "Altitude(m)": 556678.49055288,
        "Argument of Periapsis(deg)": 0.028583435319921423,
        "Eccentricity": 0.0,
        "Inclination(deg)": 53.0,
        "Latitude(deg)": 38.762691588560315,
        "Longitude(deg)": -61.44214806743375,
        "Mean Anomaly(deg)": 51.40015869165064,
        "RAAN(deg)": 4.95746085364723,
        "Satellite Name": "Starlink Shell 1 22",
        "Satellite Number": 22,
        "Semi-Major Axis(m)": 6931778.249405717,
        "Time(s)": 820
    },
    {
        "Altitude(m)": 556761.9185780558,
        "Argument of Periapsis(deg)": 0.028932013799432665,
        "Eccentricity": 0.0,
        "Inclination(deg)": 53.0,
        "Latitude(deg)": 39.1620478586816,
        "Longitude(deg)": -60.862079275034375,
        "Mean Anomaly(deg)": 52.02698989520736,
        "RAAN(deg)": 4.956942083569757,
        "Satellite Name": "Starlink Shell 1 22",
        "Satellite Number": 22,
        "Semi-Major Axis(m)": 6931778.249405717,
        "Time(s)": 830
    },
    {
        "Altitude(m)": 556845.2285151185,
        "Argument of Periapsis(deg)": 0.029280592278943897,
        "Eccentricity": 0.0,
        "Inclination(deg)": 53.0,
        "Latitude(deg)": 39.55802645963041,
        "Longitude(deg)": -60.274981625380484,
        "Mean Anomaly(deg)": 52.65382109876407,
        "RAAN(deg)": 4.956423313492285,
        "Satellite Name": "Starlink Shell 1 22",
        "Satellite Number": 22,
        "Semi-Major Axis(m)": 6931778.249405717,
        "Time(s)": 840
    },
    {
        "Altitude(m)": 556928.3660715289,
        "Argument of Periapsis(deg)": 0.029629170758455132,
        "Eccentricity": 0.0,
        "Inclination(deg)": 53.0,
        "Latitude(deg)": 39.95054207213322,
        "Longitude(deg)": -59.68073580937563,
        "Mean Anomaly(deg)": 53.28065230232079,
        "RAAN(deg)": 4.955904543414812,
        "Satellite Name": "Starlink Shell 1 22",
        "Satellite Number": 22,
        "Semi-Major Axis(m)": 6931778.249405717,
        "Time(s)": 850
    },
    {
        "Altitude(m)": 557011.2772528871,
        "Argument of Periapsis(deg)": 0.02997774923796637,
        "Eccentricity": 0.0,
        "Inclination(deg)": 53.0,
        "Latitude(deg)": 40.3395075544975,
        "Longitude(deg)": -59.07922405730206,
        "Mean Anomaly(deg)": 53.907483505877494,
        "RAAN(deg)": 4.95538577333734,
        "Satellite Name": "Starlink Shell 1 22",
        "Satellite Number": 22,
        "Semi-Major Axis(m)": 6931778.249405717,
        "Time(s)": 860
    },
    {
        "Altitude(m)": 557093.9083903361,
        "Argument of Periapsis(deg)": 0.030326327717477602,
        "Eccentricity": 0.0,
        "Inclination(deg)": 53.0,
        "Latitude(deg)": 40.72483392823806,
        "Longitude(deg)": -58.470329023745656,
        "Mean Anomaly(deg)": 54.53431470943422,
        "RAAN(deg)": 4.954867003259867,
        "Satellite Name": "Starlink Shell 1 22",
        "Satellite Number": 22,
        "Semi-Major Axis(m)": 6931778.249405717,
        "Time(s)": 870
    },
    {
        "Altitude(m)": 557176.2061678077,
        "Argument of Periapsis(deg)": 0.030674906196988847,
        "Eccentricity": 0.0,
        "Inclination(deg)": 53.0,
        "Latitude(deg)": 41.10643036666456,
        "Longitude(deg)": -57.85393521008641,
        "Mean Anomaly(deg)": 55.16114591299093,
        "RAAN(deg)": 4.954348233182394,
        "Satellite Name": "Starlink Shell 1 22",
        "Satellite Number": 22,
        "Semi-Major Axis(m)": 6931778.249405717,
        "Time(s)": 880
    },
    {
        "Altitude(m)": 557258.1176490065,
        "Argument of Periapsis(deg)": 0.031023484676500086,
        "Eccentricity": 0.0,
        "Inclination(deg)": 53.0,
        "Latitude(deg)": 41.484204186734694,
        "Longitude(deg)": -57.22992872266477,
        "Mean Anomaly(deg)": 55.78797711654765,
        "RAAN(deg)": 4.9538294631049204,
        "Satellite Name": "Starlink Shell 1 22",
        "Satellite Number": 22,
        "Semi-Major Axis(m)": 6931778.249405717,
        "Time(s)": 890
    },
    {
        "Altitude(m)": 557339.5903042018,
        "Argument of Periapsis(deg)": 0.03137206315601132,
        "Eccentricity": 0.0,
        "Inclination(deg)": 53.0,
        "Latitude(deg)": 41.85806084449027,
        "Longitude(deg)": -56.59819704808479,
        "Mean Anomaly(deg)": 56.41480832010436,
        "RAAN(deg)": 4.953310693027448,
        "Satellite Name": "Starlink Shell 1 22",
        "Satellite Number": 22,
        "Semi-Major Axis(m)": 6931778.249405717,
        "Time(s)": 900
    },
    {
        "Altitude(m)": 557420.5720367527,
        "Argument of Periapsis(deg)": 0.03172064163552255,
        "Eccentricity": 0.0,
        "Inclination(deg)": 53.0,
        "Latitude(deg)": 42.22790393440813,
        "Longitude(deg)": -55.958630358969366,
        "Mean Anomaly(deg)": 57.041639523661054,
        "RAAN(deg)": 4.9527919229499755,
        "Satellite Name": "Starlink Shell 1 22",
        "Satellite Number": 22,
        "Semi-Major Axis(m)": 6931778.249405717,
        "Time(s)": 910
    },
    {
        "Altitude(m)": 557501.0112094085,
        "Argument of Periapsis(deg)": 0.0320692201150338,
        "Eccentricity": 0.0,
        "Inclination(deg)": 53.0,
        "Latitude(deg)": 42.593635193018514,
        "Longitude(deg)": -55.311121324810394,
        "Mean Anomaly(deg)": 57.668470727217795,
        "RAAN(deg)": 4.952273152872503,
        "Satellite Name": "Starlink Shell 1 22",
        "Satellite Number": 22,
        "Semi-Major Axis(m)": 6931778.249405717,
        "Time(s)": 920
    },
    {
        "Altitude(m)": 557580.8566703183,
        "Argument of Periapsis(deg)": 0.032417798594545036,
        "Eccentricity": 0.0,
        "Inclination(deg)": 53.0,
        "Latitude(deg)": 42.955154507152415,
        "Longitude(deg)": -54.65556494110404,
        "Mean Anomaly(deg)": 58.2953019307745,
        "RAAN(deg)": 4.95175438279503,
        "Satellite Name": "Starlink Shell 1 22",
        "Satellite Number": 22,
        "Semi-Major Axis(m)": 6931778.249405717,
        "Time(s)": 930
    },
    {
        "Altitude(m)": 557660.0577787847,
        "Argument of Periapsis(deg)": 0.03276637707405627,
        "Eccentricity": 0.0,
        "Inclination(deg)": 53.0,
        "Latitude(deg)": 43.31235992719559,
        "Longitude(deg)": -53.99185988987684,
        "Mean Anomaly(deg)": 58.92213313433122,
        "RAAN(deg)": 4.951235612717556,
        "Satellite Name": "Starlink Shell 1 22",
        "Satellite Number": 22,
        "Semi-Major Axis(m)": 6931778.249405717,
        "Time(s)": 940
    }
]